[{"OBJECT_NAME":"STARLINK-1676","OBJECT_ID":"2020-070AA","EPOCH":"2026-03-09T12:01:20.339904","MEAN_MOTION":15.5130648,"ECCENTRICITY":6.362e-5,"INCLINATION":53.0455,"RA_OF_ASC_NODE":145.9733,"ARG_OF_PERICENTER":52.0249,"MEAN_ANOMALY":308.0817,"EPHEMERIS_TYPE":0,"CLASSIFICATION_TYPE":"U","NORAD_CAT_ID":46556,"ELEMENT_SET_NO":999,"REV_AT_EPOCH":29992,"BSTAR":0.00087592208,"MEAN_MOTION_DOT":0.00052185,"MEAN_MOTION_DDOT":0},{"OBJECT_NAME":"STARLINK-30083","OBJECT_ID":"2023-056K","EPOCH":"2026-03-09T22:00:01.999584","MEAN_MOTION":15.23112858,"ECCENTRICITY":0.00011245,"INCLINATION":43.0002,"RA_OF_ASC_NODE":182.0509,"ARG_OF_PERICENTER":286.4689,"MEAN_ANOMALY":225.5641,"EPHEMERIS_TYPE":0,"CLASSIFICATION_TYPE":"U","NORAD_CAT_ID":56295,"ELEMENT_SET_NO":999,"REV_AT_EPOCH":578,"BSTAR":0.059898212,"MEAN_MOTION_DOT":0.01587924,"MEAN_MOTION_DDOT":0}]
